NORAD_CAT_ID,OBJECT_NAME,OBJECT_TYPE,EPOCH,MEAN_MOTION,ECCENTRICITY,INCLINATION,RA_OF_ASC_NODE,ARG_OF_PERICENTER,MEAN_ANOMALY,BSTAR,MEAN_MOTION_DOT,MEAN_MOTION_DDOT,TLE_LINE0,TLE_LINE1,TLE_LINE2,SEMIMAJOR_AXIS,PERIOD,APOGEE,PERIGEE,DECAYED
54760.0,STARLINK-5220,PAYLOAD,2024-02-18 15:15:15,15.08847291,0.00017,53.2179,171.4416,100.5649,259.5535,6.0771e-05,6.79e-06,0.0,0 STARLINK-5220,1 54760U 22175C   24049.63559290  .00000679  00000-0  60771-4 0  9994,2 54760  53.2179 171.4416 0001700 100.5649 259.5535 15.08847291 66683,6917.858,95.437,540.899,538.547,0.0
54760.0,STARLINK-5220,PAYLOAD,2024-02-19 11:55:17,15.08828196,0.0001508,53.2188,167.5767,101.2074,258.9088,-2.0668e-06,-3.21e-06,0.0,0 STARLINK-5220,1 54760U 22175C   24050.49673118 -.00000321  00000-0 -20668-5 0  9994,2 54760  53.2188 167.5767 0001508 101.2074 258.9088 15.08828196 64658,6917.916,95.438,540.825,538.738,0.0
54760.0,STARLINK-5220,PAYLOAD,2024-02-19 13:30:40,15.08834852,0.0001287,53.2173,167.2759,93.7417,266.3722,2.4047e-05,9.5e-07,0.0,0 STARLINK-5220,1 54760U 22175C   24050.56296674  .00000095  00000-0  24047-4 0  9990,2 54760  53.2173 167.2759 0001287  93.7417 266.3722 15.08834852 66825,6917.896,95.438,540.651,538.871,0.0
54760.0,STARLINK-5220,PAYLOAD,2024-02-19 18:16:49,15.08840688,0.0001406,53.216,166.3816,96.7873,263.3279,8.0093e-05,9.87e-06,0.0,0 STARLINK-5220,1 54760U 22175C   24050.76168199  .00000987  00000-0  80093-4 0  9995,2 54760  53.2160 166.3816 0001406  96.7873 263.3279 15.08840688 64698,6917.878,95.438,540.716,538.771,0.0
54760.0,STARLINK-5220,PAYLOAD,2024-02-20 11:46:04,15.08834676,0.0001707,53.2161,163.1093,86.0866,274.0322,6.54e-05,7.53e-06,0.0,0 STARLINK-5220,1 54760U 22175C   24051.49032906  .00000753  00000-0  65400-4 0  9998,2 54760  53.2161 163.1093 0001707  86.0866 274.0322 15.08834676 64800,6917.897,95.438,540.943,538.581,0.0
54760.0,STARLINK-5220,PAYLOAD,2024-02-20 13:21:27,15.08838369,0.0001508,53.2166,162.812,93.8293,266.2872,2.2238e-05,6.6e-07,0.0,0 STARLINK-5220,1 54760U 22175C   24051.55656746  .00000066  00000-0  22238-4 0  9998,2 54760  53.2166 162.8120 0001508  93.8293 266.2872 15.08838369 66977,6917.885,95.438,540.794,538.707,0.0
54760.0,STARLINK-5220,PAYLOAD,2024-02-20 14:56:50,15.08841234,0.0001622,53.217,162.5153,64.3318,295.7842,3.0996e-05,2.05e-06,0.0,0 STARLINK-5220,1 54760U 22175C   24051.62280641  .00000205  00000-0  30996-4 0  9998,2 54760  53.2170 162.5153 0001622  64.3318 295.7842 15.08841234 66983,6917.877,95.437,540.864,538.62,0.0
54760.0,STARLINK-5220,PAYLOAD,2024-02-21 11:36:50,15.08845718,0.000149,53.2178,158.6485,77.6142,282.5017,0.00013837,1.915e-05,0.0,0 STARLINK-5220,1 54760U 22175C   24052.48392228  .00001915  00000-0  13837-3 0  9991,2 54760  53.2178 158.6485 0001490  77.6142 282.5017 15.08845718 64954,6917.863,95.437,540.759,538.697,0.0
54760.0,STARLINK-5220,PAYLOAD,2024-02-21 14:47:36,15.08848946,0.0001622,53.2187,158.0538,75.3815,284.7357,0.00017337,2.473e-05,0.0,0 STARLINK-5220,1 54760U 22175C   24052.61640010  .00002473  00000-0  17337-3 0  9990,2 54760  53.2187 158.0538 0001622  75.3815 284.7357 15.08848946 67136,6917.853,95.437,540.84,538.596,0.0
54760.0,STARLINK-5220,PAYLOAD,2024-02-22 11:27:38,15.08842055,0.0001608,53.2176,154.1924,77.4272,282.69,2.8071e-05,1.59e-06,0.0,0 STARLINK-5220,1 54760U 22175C   24053.47752537  .00000159  00000-0  28071-4 0  9990,2 54760  53.2176 154.1924 0001608  77.4272 282.6900 15.08842055 65105,6917.874,95.437,540.852,538.627,0.0
54760.0,STARLINK-5220,PAYLOAD,2024-02-22 13:03:01,15.08845257,0.00015,53.2176,153.8928,87.9987,272.1177,6.8209e-05,7.98e-06,0.0,0 STARLINK-5220,1 54760U 22175C   24053.54376373  .00000798  00000-0  68209-4 0  9994,2 54760  53.2176 153.8928 0001500  87.9987 272.1177 15.08845257 67272,6917.864,95.437,540.767,538.692,0.0
54760.0,STARLINK-5220,PAYLOAD,2024-02-23 12:53:47,15.0885929,0.0001479,53.2168,149.4353,80.7169,279.399,0.00016482,2.337e-05,0.0,0 STARLINK-5220,1 54760U 22175C   24054.53735143  .00002337  00000-0  16482-3 0  9994,2 54760  53.2168 149.4353 0001479  80.7169 279.3990 15.08859290 65265,6917.821,95.436,540.71,538.663,0.0
54760.0,STARLINK-5220,PAYLOAD,2024-02-24 12:44:35,15.08834119,0.0001388,53.2163,144.9734,98.0505,262.0645,-1.7793e-05,-5.71e-06,0.0,0 STARLINK-5220,1 54760U 22175C   24055.53096532 -.00000571  00000-0 -17793-4 0  9994,2 54760  53.2163 144.9734 0001388  98.0505 262.0645 15.08834119 65414,6917.898,95.438,540.724,538.803,0.0
54760.0,STARLINK-5220,PAYLOAD,2024-02-24 15:55:21,15.0883778,0.000139,53.2165,144.3783,97.9389,262.1761,4.097e-05,3.64e-06,0.0,0 STARLINK-5220,1 54760U 22175C   24055.66344465  .00000364  00000-0  40970-4 0  9990,2 54760  53.2165 144.3783 0001390  97.9389 262.1761 15.08837780 67593,6917.887,95.438,540.714,538.791,0.0
54760.0,STARLINK-5220,PAYLOAD,2024-02-25 12:35:21,15.08848327,0.0001489,53.2162,140.5133,89.1551,270.9612,0.00025074,3.706e-05,0.0,0 STARLINK-5220,1 54760U 22175C   24056.52455937  .00003706  00000-0  25074-3 0  9993,2 54760  53.2162 140.5133 0001489  89.1551 270.9612 15.08848327 65566,6917.855,95.437,540.75,538.69,0.0
54760.0,STARLINK-5220,PAYLOAD,2024-02-25 22:07:40,15.08843725,0.0001468,53.2159,138.73,89.9554,270.1606,0.00023953,3.527e-05,0.0,0 STARLINK-5220,1 54760U 22175C   24056.92200208  .00003527  00000-0  23953-3 0  9991,2 54760  53.2159 138.7300 0001468  89.9554 270.1606 15.08843725 67783,6917.869,95.437,540.75,538.718,0.0
54760.0,STARLINK-5220,PAYLOAD,2024-02-26 04:29:13,15.0884373,0.0001491,53.2161,137.5411,97.3064,262.8097,0.00028867,4.31e-05,0.0,0 STARLINK-5220,1 54760U 22175C   24057.18696492  .00004310  00000-0  28867-3 0  9994,2 54760  53.2161 137.5411 0001491  97.3064 262.8097 15.08843730 65664,6917.869,95.437,540.765,538.703,0.0
54760.0,STARLINK-5220,PAYLOAD,2024-02-26 12:26:09,15.08845199,0.0001531,53.2167,136.0543,99.8953,260.2212,0.00028164,4.198e-05,0.0,0 STARLINK-5220,1 54760U 22175C   24057.51816273  .00004198  00000-0  28164-3 0  9996,2 54760  53.2167 136.0543 0001531  99.8953 260.2212 15.08845199 67876,6917.864,95.437,540.789,538.67,0.0
54760.0,STARLINK-5220,PAYLOAD,2024-02-26 15:36:55,15.08847056,0.0001616,53.2166,135.4592,99.9439,260.1736,0.00028235,4.209e-05,0.0,0 STARLINK-5220,1 54760U 22175C   24057.65064318  .00004209  00000-0  28235-3 0  9998,2 54760  53.2166 135.4592 0001616  99.9439 260.1736 15.08847056 67892,6917.859,95.437,540.842,538.606,0.0
54760.0,STARLINK-5220,PAYLOAD,2024-02-27 12:16:56,15.08835206,0.0001492,53.2164,131.5912,97.584,262.5322,-4.4507e-05,-9.96e-06,0.0,0 STARLINK-5220,1 54760U 22175C   24058.51176977 -.00000996  00000-0 -44507-4 0  9991,2 54760  53.2164 131.5912 0001492  97.5840 262.5322 15.08835206 65861,6917.895,95.438,540.792,538.728,0.0
54760.0,STARLINK-5220,PAYLOAD,2024-02-27 21:49:15,15.08835352,0.0001576,53.2165,129.8096,87.2469,272.8703,1.4898e-05,-5.1e-07,0.0,0 STARLINK-5220,1 54760U 22175C   24058.90921211 -.00000051  00000-0  14898-4 0  9994,2 54760  53.2165 129.8096 0001576  87.2469 272.8703 15.08835352 68087,6917.895,95.438,540.85,538.669,0.0
54760.0,STARLINK-5220,PAYLOAD,2024-02-28 12:07:43,15.08845803,0.0001535,53.2154,127.1312,89.3458,270.771,0.00031004,4.651e-05,0.0,0 STARLINK-5220,1 54760U 22175C   24059.50536979  .00004651  00000-0  31004-3 0  9990,2 54760  53.2154 127.1312 0001535  89.3458 270.7710 15.08845803 68170,6917.863,95.437,540.79,538.666,0.0
54760.0,STARLINK-5220,PAYLOAD,2024-02-29 10:23:08,15.08845664,0.0001492,53.2144,122.9687,83.426,276.6901,0.00030961,4.644e-05,0.0,0 STARLINK-5220,1 54760U 22175C   24060.43273181  .00004644  00000-0  30961-3 0  9990,2 54760  53.2144 122.9687 0001492  83.4260 276.6901 15.08845664 66153,6917.863,95.437,540.76,538.696,0.0
54760.0,STARLINK-5220,PAYLOAD,2024-02-29 13:33:54,15.08850026,0.0001517,53.2139,122.3733,83.3611,276.7554,0.00036463,5.521e-05,0.0,0 STARLINK-5220,1 54760U 22175C   24060.56520980  .00005521  00000-0  36463-3 0  9994,2 54760  53.2139 122.3733 0001517  83.3611 276.7554 15.08850026 68335,6917.85,95.437,540.764,538.665,0.0
54760.0,STARLINK-5220,PAYLOAD,2024-02-29 21:30:49,15.08841421,0.000153,53.2144,120.8826,92.4581,267.6586,0.00010438,1.374e-05,0.0,0 STARLINK-5220,1 54760U 22175C   24060.89641127  .00001374  00000-0  10438-3 0  9993,2 54760  53.2144 120.8826 0001530  92.4581 267.6586 15.08841421 68387,6917.876,95.437,540.799,538.683,0.0
54760.0,STARLINK-5220,PAYLOAD,2024-03-01 03:52:22,15.08838786,0.0001676,53.2135,119.693,97.4022,262.716,0.00011568,1.553e-05,0.0,0 STARLINK-5220,1 54760U 22175C   24061.16137321  .00001553  00000-0  11568-3 0  9994,2 54760  53.2135 119.6930 0001676  97.4022 262.7160 15.08838786 66264,6917.884,95.438,540.909,538.59,0.0
54760.0,STARLINK-5220,PAYLOAD,2024-03-01 10:13:55,15.08841695,0.0001634,53.2135,118.5038,95.5614,264.5564,0.00016896,2.402e-05,0.0,0 STARLINK-5220,1 54760U 22175C   24061.42633246  .00002402  00000-0  16896-3 0  9993,2 54760  53.2135 118.5038 0001634  95.5614 264.5564 15.08841695 68466,6917.875,95.437,540.871,538.61,0.0
54760.0,STARLINK-5220,PAYLOAD,2024-03-02 10:04:41,15.08851145,0.0001568,53.2156,114.0458,94.1445,265.9726,0.00028881,4.313e-05,0.0,0 STARLINK-5220,1 54760U 22175C   24062.41992932  .00004313  00000-0  28881-3 0  9993,2 54760  53.2156 114.0458 0001568  94.1445 265.9726 15.08851145 66452,6917.846,95.437,540.796,538.627,0.0
54760.0,STARLINK-5220,PAYLOAD,2024-03-03 03:33:56,15.0884022,0.0001754,53.2151,110.7746,80.5279,279.5911,0.00011452,1.535e-05,0.0,0 STARLINK-5220,1 54760U 22175C   24063.14857397  .00001535  00000-0  11452-3 0  9998,2 54760  53.2151 110.7746 0001754  80.5279 279.5911 15.08840220 66562,6917.88,95.438,540.958,538.531,0.0
54760.0,STARLINK-5220,PAYLOAD,2024-03-03 09:55:29,15.08836745,0.0001505,53.2155,109.5854,85.6734,274.443,6.865e-05,8.05e-06,0.0,0 STARLINK-5220,1 54760U 22175C   24063.41353603  .00000805  00000-0  68650-4 0  9991,2 54760  53.2155 109.5854 0001505  85.6734 274.4430 15.08836745 68769,6917.89,95.438,540.796,538.714,0.0
